[
    {
        "Altitude(m)": 610405.3078933143,
        "Argument of Periapsis(deg)": 0.0,
        "Eccentricity": 0.0,
        "Inclination(deg)": 60.0,
        "Latitude(deg)": 52.111229811792604,
        "Longitude(deg)": -167.52243881933413,
        "Mean Anomaly(deg)": 114.54549999999999,
        "RAAN(deg)": 160.0,
        "Satellite Name": "Test1 711",
        "Satellite Number": 711,
        "Semi-Major Axis(m)": 6980739.136638005,
        "Time(s)": 0
    },
    {
        "Altitude(m)": 610321.8802793402,
        "Argument of Periapsis(deg)": 0.00010418945913296404,
        "Eccentricity": 0.0,
        "Inclination(deg)": 60.0,
        "Latitude(deg)": 51.745943285649986,
        "Longitude(deg)": -166.75354758178514,
        "Mean Anomaly(deg)": 115.16560614546184,
        "RAAN(deg)": 159.99957995086024,
        "Satellite Name": "Test1 711",
        "Satellite Number": 711,
        "Semi-Major Axis(m)": 6980739.136638005,
        "Time(s)": 10
    }
]